STARLINK-1995
1 27590C 21009AU  21325.12805339  .00006724  00000-0  45054-3 0  3254
2 27590  53.0541 247.6516 0001893  64.3886  69.1964 15.06391723    15
